NORAD_CAT_ID,OBJECT_NAME,OBJECT_TYPE,EPOCH,MEAN_MOTION,ECCENTRICITY,INCLINATION,RA_OF_ASC_NODE,ARG_OF_PERICENTER,MEAN_ANOMALY,BSTAR,MEAN_MOTION_DOT,MEAN_MOTION_DDOT,TLE_LINE0,TLE_LINE1,TLE_LINE2,SEMIMAJOR_AXIS,PERIOD,APOGEE,PERIGEE,DECAYED
53625.0,STARLINK-4603,PAYLOAD,2023-10-03 23:29:07,15.08840618,0.0001591,53.2171,259.0052,106.6179,253.4988,0.00011493,1.542e-05,0.0,0 STARLINK-4603,1 53625U 22104AP  23276.97856467  .00001542  00000-0  11493-3 0  9995,2 53625  53.2171 259.0052 0001591 106.6179 253.4988 15.08840618 61053,6917.878,95.438,540.844,538.643,0.0
53625.0,STARLINK-4603,PAYLOAD,2023-10-04 15:22:59,15.08846408,0.0001329,53.2168,256.0326,99.3972,260.7171,0.00026602,3.949e-05,0.0,0 STARLINK-4603,1 53625U 22104AP  23277.64096375  .00003949  00000-0  26602-3 0  9995,2 53625  53.2168 256.0326 0001329  99.3972 260.7171 15.08846408 61832,6917.861,95.437,540.645,538.806,0.0
53625.0,STARLINK-4603,PAYLOAD,2023-10-05 02:30:41,15.08845145,0.0001739,53.2172,253.9542,106.1764,253.9419,0.00022843,3.35e-05,0.0,0 STARLINK-4603,1 53625U 22104AP  23278.10464492  .00003350  00000-0  22843-3 0  9995,2 53625  53.2172 253.9542 0001739 106.1764 253.9419 15.08845145 61223,6917.865,95.437,540.933,538.527,0.0
53625.0,STARLINK-4603,PAYLOAD,2023-10-05 07:16:50,15.08855882,0.0001719,53.2174,253.0635,105.1238,254.9945,0.00051052,7.85e-05,0.0,0 STARLINK-4603,1 53625U 22104AP  23278.30336188  .00007850  00000-0  51052-3 0  9990,2 53625  53.2174 253.0635 0001719 105.1238 254.9945 15.08855882 61934,6917.832,95.437,540.886,538.508,0.0
53625.0,STARLINK-4603,PAYLOAD,2023-10-05 15:13:46,15.08852288,0.0001662,53.2171,251.5741,94.9339,265.1843,0.00048192,7.393e-05,0.0,0 STARLINK-4603,1 53625U 22104AP  23278.63456322  .00007393  00000-0  48192-3 0  9992,2 53625  53.2171 251.5741 0001662  94.9339 265.1843 15.08852288 61989,6917.843,95.437,540.858,538.558,0.0
53625.0,STARLINK-4603,PAYLOAD,2023-10-06 07:07:37,15.0884815,0.0001607,53.2168,248.6012,92.5302,267.5874,0.00024074,3.546e-05,0.0,0 STARLINK-4603,1 53625U 22104AP  23279.29696251  .00003546  00000-0  24074-3 0  9991,2 53625  53.2168 248.6012 0001607  92.5302 267.5874 15.08848150 61406,6917.855,95.437,540.832,538.609,0.0
53625.0,STARLINK-4603,PAYLOAD,2023-10-06 15:04:33,15.08844254,0.0001946,53.2165,247.1162,88.6528,271.4687,0.0002188,3.196e-05,0.0,0 STARLINK-4603,1 53625U 22104AP  23279.62816498  .00003196  00000-0  21880-3 0  9998,2 53625  53.2165 247.1162 0001946  88.6528 271.4687 15.08844254 62133,6917.867,95.437,541.079,538.386,0.0
53625.0,STARLINK-4603,PAYLOAD,2023-10-07 06:58:25,15.0884192,0.0001642,53.2154,244.1404,87.8739,272.2441,0.00037583,5.699e-05,0.0,0 STARLINK-4603,1 53625U 22104AP  23280.29056731  .00005699  00000-0  37583-3 0  9996,2 53625  53.2154 244.1404 0001642  87.8739 272.2441 15.08841920 61554,6917.875,95.437,540.875,538.604,0.0
53625.0,STARLINK-4603,PAYLOAD,2023-10-07 14:55:20,15.08855214,0.000187,53.2152,242.6536,85.4242,274.6964,0.0010541,0.00016535,0.0,0 STARLINK-4603,1 53625U 22104AP  23280.62176538  .00016535  00000-0  10541-2 0  9996,2 53625  53.2152 242.6536 0001870  85.4242 274.6964 15.08855214 61600,6917.834,95.437,540.993,538.405,0.0
53625.0,STARLINK-4603,PAYLOAD,2023-10-07 21:16:52,15.08876117,0.0001528,53.2151,241.4656,90.3723,269.7445,0.0016817,0.00026604,0.0,0 STARLINK-4603,1 53625U 22104AP  23280.88671882  .00026604  00000-0  16817-2 0  9996,2 53625  53.2151 241.4656 0001528  90.3723 269.7445 15.08876117 62322,6917.77,95.435,540.692,538.578,0.0
53625.0,STARLINK-4603,PAYLOAD,2023-10-08 03:38:25,15.08850657,0.0002038,53.2144,240.2777,77.8419,282.2802,-0.00027386,-4.645e-05,0.0,0 STARLINK-4603,1 53625U 22104AP  23281.15167853 -.00004645  00000-0 -27386-3 0  9992,2 53625  53.2144 240.2777 0002038  77.8419 282.2802 15.08850657 61680,6917.848,95.437,541.123,538.303,0.0
53625.0,STARLINK-4603,PAYLOAD,2023-10-08 06:49:11,15.0884546,0.0001263,53.2153,239.6803,92.5555,267.5581,0.00025324,3.745e-05,0.0,0 STARLINK-4603,1 53625U 22104AP  23281.28415898  .00003745  00000-0  25324-3 0  9999,2 53625  53.2153 239.6803 0001263  92.5555 267.5581 15.08845460 62380,6917.864,95.437,540.602,538.855,0.0
53625.0,STARLINK-4603,PAYLOAD,2023-10-08 14:46:06,15.08851673,0.0001232,53.2155,238.1933,88.2923,271.821,0.0013881,0.0002188,0.0,0 STARLINK-4603,1 53625U 22104AP  23281.61535843  .00021880  00000-0  13881-2 0  9993,2 53625  53.2155 238.1933 0001232  88.2923 271.8210 15.08851673 62433,6917.845,95.437,540.562,538.857,0.0
53625.0,STARLINK-4603,PAYLOAD,2023-10-09 03:29:11,15.08884389,0.0001311,53.2149,235.8143,88.2067,271.9075,0.0025493,0.00040567,0.0,0 STARLINK-4603,1 53625U 22104AP  23282.14527007  .00040567  00000-0  25493-2 0  9990,2 53625  53.2149 235.8143 0001311  88.2067 271.9075 15.08884389 61833,6917.745,95.435,540.517,538.703,0.0
53625.0,STARLINK-4603,PAYLOAD,2023-10-09 06:39:57,15.08897253,0.0001343,53.2148,235.2196,89.0463,271.0683,0.002635,0.00041964,0.0,0 STARLINK-4603,1 53625U 22104AP  23282.27774529  .00041964  00000-0  26350-2 0  9992,2 53625  53.2148 235.2196 0001343  89.0463 271.0683 15.08897253 62536,6917.705,95.434,540.499,538.641,0.0
53625.0,STARLINK-4603,PAYLOAD,2023-10-09 14:36:53,15.08873494,0.0002837,53.2159,233.7325,79.0004,281.1307,0.00099109,0.00015535,0.0,0 STARLINK-4603,1 53625U 22104AP  23282.60894679  .00015535  00000-0  99109-3 0  9996,2 53625  53.2159 233.7325 0002837  79.0004 281.1307 15.08873494 61900,6917.778,95.435,541.606,537.68,0.0
53625.0,STARLINK-4603,PAYLOAD,2023-10-09 20:58:25,15.0883026,0.0002063,53.2168,232.543,84.1371,275.9856,-0.00070738,-0.00011526,0.0,0 STARLINK-4603,1 53625U 22104AP  23282.87390796 -.00011526  00000-0 -70738-3 0  9991,2 53625  53.2168 232.5430 0002063  84.1371 275.9856 15.08830260 62623,6917.91,95.438,541.202,538.348,0.0
53625.0,STARLINK-4603,PAYLOAD,2023-10-10 01:44:35,15.08820687,0.0001425,53.2166,231.6519,84.3447,275.7708,0.0008234,0.00012834,0.0,0 STARLINK-4603,1 53625U 22104AP  23283.07263435  .00012834  00000-0  82340-3 0  9996,2 53625  53.2166 231.6519 0001425  84.3447 275.7708 15.08820687 61979,6917.939,95.439,540.79,538.819,0.0
53625.0,STARLINK-4603,PAYLOAD,2023-10-10 06:30:45,15.08823625,0.0001401,53.2168,230.7582,87.5319,272.5833,0.0022522,0.00035722,0.0,0 STARLINK-4603,1 53625U 22104AP  23283.27135696  .00035722  00000-0  22522-2 0  9991,2 53625  53.2168 230.7582 0001401  87.5319 272.5833 15.08823625 62686,6917.93,95.439,540.765,538.826,0.0
53625.0,STARLINK-4603,PAYLOAD,2023-10-11 03:10:45,15.08872866,0.0001445,53.2167,226.8919,87.7626,272.3532,0.0020988,0.00033303,0.0,0 STARLINK-4603,1 53625U 22104AP  23284.13247494  .00033303  00000-0  20988-2 0  9994,2 53625  53.2167 226.8919 0001445  87.7626 272.3532 15.08872866 62131,6917.78,95.435,540.645,538.645,0.0
53625.0,STARLINK-4603,PAYLOAD,2023-10-11 12:43:04,15.08855519,0.0002143,53.2177,225.1083,99.3398,260.7836,0.00054931,8.469e-05,0.0,0 STARLINK-4603,1 53625U 22104AP  23284.52991484  .00008469  00000-0  54931-3 0  9993,2 53625  53.2177 225.1083 0002143  99.3398 260.7836 15.08855519 62872,6917.833,95.437,541.18,538.215,0.0
53625.0,STARLINK-4603,PAYLOAD,2023-10-12 04:36:57,15.08825648,0.0001533,53.2174,222.1363,73.367,286.749,0.0025047,0.00039784,0.0,0 STARLINK-4603,1 53625U 22104AP  23285.19233084  .00039784  00000-0  25047-2 0  9991,2 53625  53.2174 222.1363 0001533  73.3670 286.7490 15.08825648 62294,6917.924,95.438,540.85,538.729,0.0
53625.0,STARLINK-4603,PAYLOAD,2023-10-12 12:33:52,15.08859065,0.0001548,53.2176,220.6496,78.323,281.7935,0.0028625,0.00045587,0.0,0 STARLINK-4603,1 53625U 22104AP  23285.52352971  .00045587  00000-0  28625-2 0  9998,2 53625  53.2176 220.6496 0001548  78.3230 281.7935 15.08859065 63020,6917.822,95.436,540.758,538.616,0.0
53625.0,STARLINK-4603,PAYLOAD,2023-10-13 02:52:20,15.08832302,9.18e-05,53.217,217.9723,86.3537,273.756,-0.00087167,-0.0001413,0.0,0 STARLINK-4603,1 53625U 22104AP  23286.11968343 -.00014130  00000-0 -87167-3 0  9999,2 53625  53.2170 217.9723 0000918  86.3537 273.7560 15.08832302 62439,6917.904,95.438,540.404,539.134,0.0
53625.0,STARLINK-4603,PAYLOAD,2023-10-13 12:24:40,15.08824859,0.0001022,53.2168,216.1889,93.9918,266.1191,0.0015599,0.00024615,0.0,0 STARLINK-4603,1 53625U 22104AP  23286.51713240  .00024615  00000-0  15599-2 0  9993,2 53625  53.2168 216.1889 0001022  93.9918 266.1191 15.08824859 63170,6917.927,95.439,540.499,539.085,0.0
53625.0,STARLINK-4603,PAYLOAD,2023-10-14 04:18:31,15.08878153,0.00015,53.2176,213.2159,99.3155,260.8007,0.0027763,0.00044221,0.0,0 STARLINK-4603,1 53625U 22104AP  23287.17953040  .00044221  00000-0  27763-2 0  9991,2 53625  53.2176 213.2159 0001500  99.3155 260.8007 15.08878153 62599,6917.764,95.435,540.666,538.591,0.0
53625.0,STARLINK-4603,PAYLOAD,2023-10-14 12:15:27,15.08844975,0.0002226,53.2167,211.7291,83.9274,276.1972,0.000538,8.286e-05,0.0,0 STARLINK-4603,1 53625U 22104AP  23287.51073806  .00008286  00000-0  53800-3 0  9995,2 53625  53.2167 211.7291 0002226  83.9274 276.1972 15.08844975 63324,6917.865,95.437,541.27,538.19,0.0
53625.0,STARLINK-4603,PAYLOAD,2023-10-14 18:37:00,15.08844018,0.0003193,53.2164,210.5409,84.5767,275.559,0.0011443,0.00017973,0.0,0 STARLINK-4603,1 53625U 22104AP  23287.77570344  .00017973  00000-0  11443-2 0  9991,2 53625  53.2164 210.5409 0003193  84.5767 275.5590 15.08844018 62682,6917.868,95.437,541.942,537.524,0.0
53625.0,STARLINK-4603,PAYLOAD,2023-10-15 04:09:19,15.08834852,0.0001689,53.2169,208.7567,87.4997,272.6188,0.0020856,0.00033056,0.0,0 STARLINK-4603,1 53625U 22104AP  23288.17314663  .00033056  00000-0  20856-2 0  9994,2 53625  53.2169 208.7567 0001689  87.4997 272.6188 15.08834852 62749,6917.896,95.438,540.93,538.593,0.0
53625.0,STARLINK-4603,PAYLOAD,2023-10-15 12:06:16,15.08829078,0.0001886,53.2165,207.2689,87.0209,273.0999,0.00091809,0.00014349,0.0,0 STARLINK-4603,1 53625U 22104AP  23288.50435189  .00014349  00000-0  91809-3 0  9999,2 53625  53.2165 207.2689 0001886  87.0209 273.0999 15.08829078 62799,6917.914,95.438,541.083,538.474,0.0
